start=new Date('2023-06-13T00:00:00.000Z').valueOf();
sats=[{"NORAD_CAT_ID":"56475","APOAPSIS":"361.164","DECAY_DATE":null,"COUNTRY_CODE":"US","OBJECT_NAME":"STARLINK-5541","REV_AT_EPOCH":"515","SEMIMAJOR_AXIS":"6737.251","BSTAR":"-0.00000115310000","LAUNCH_DATE":"2023-05-10","EPHEMERIS_TYPE":"0","RCS_SIZE":"LARGE","ARG_OF_PERICENTER":"271.5074","RA_OF_ASC_NODE":"153.4239","TLE_LINE2":"2 56475  69.9975 153.4239 0003040 271.5074  88.5774 15.69924122  5155","MEAN_ANOMALY":"88.5774","CENTER_NAME":"EARTH","PERIAPSIS":"357.068","MEAN_MOTION_DOT":"-0.00000351","MEAN_MOTION":"15.69924122","REF_FRAME":"TEME","TIME_SYSTEM":"UTC","TLE_LINE1":"1 56475U 23064AD  23163.40115769 -.00000351  00000-0 -11531-5 0  9997","PERIOD":"91.724","FILE":"3931605","ECCENTRICITY":"0.00030400","CLASSIFICATION_TYPE":"U","SITE":"AFWTR","ELEMENT_SET_NO":"999","GP_ID":"233805318","INCLINATION":"69.9975","OBJECT_ID":"2023-064AD","MEAN_MOTION_DDOT":"0.0000000000000","MEAN_ELEMENT_THEORY":"SGP4","EPOCH":"2023-06-12T09:37:40.024416","OBJECT_TYPE":"PAYLOAD"},{"SITE":"AFWTR","ECCENTRICITY":"0.00028030","FILE":"3931605","CLASSIFICATION_TYPE":"U","TLE_LINE1":"1 56476U 23064AE  23163.40169968 -.00002489  00000-0 -18954-4 0  9997","PERIOD":"91.725","TIME_SYSTEM":"UTC","REF_FRAME":"TEME","MEAN_MOTION":"15.69909150","OBJECT_TYPE":"PAYLOAD","MEAN_ELEMENT_THEORY":"SGP4","EPOCH":"2023-06-12T09:38:26.852352","INCLINATION":"69.9977","MEAN_MOTION_DDOT":"0.0000000000000","OBJECT_ID":"2023-064AE","GP_ID":"233804878","ELEMENT_SET_NO":"999","LAUNCH_DATE":"2023-05-10","EPHEMERIS_TYPE":"0","RCS_SIZE":"LARGE","BSTAR":"-0.00001895400000","SEMIMAJOR_AXIS":"6737.294","REV_AT_EPOCH":"515","OBJECT_NAME":"STARLINK-5545","DECAY_DATE":null,"APOAPSIS":"361.047","COUNTRY_CODE":"US","NORAD_CAT_ID":"56476","MEAN_MOTION_DOT":"-0.00002489","PERIAPSIS":"357.270","CENTER_NAME":"EARTH","MEAN_ANOMALY":"99.4685","RA_OF_ASC_NODE":"153.4300","TLE_LINE2":"2 56476  69.9977 153.4300 0002803 260.6194  99.4685 15.69909150  5151","ARG_OF_PERICENTER":"260.6194"},{"MEAN_MOTION":"15.69933234","TIME_SYSTEM":"UTC","REF_FRAME":"TEME","TLE_LINE1":"1 56477U 23064AF  23163.33732920  .00001343  00000-0  12929-4 0  9996","PERIOD":"91.724","SITE":"AFWTR","CLASSIFICATION_TYPE":"U","FILE":"3931605","ECCENTRICITY":"0.00031750","ELEMENT_SET_NO":"999","GP_ID":"233805260","EPOCH":"2023-06-12T08:05:45.242880","MEAN_ELEMENT_THEORY":"SGP4","MEAN_MOTION_DDOT":"0.0000000000000","OBJECT_ID":"2023-064AF","INCLINATION":"69.9977","OBJECT_TYPE":"PAYLOAD","COUNTRY_CODE":"US","DECAY_DATE":null,"APOAPSIS":"361.229","NORAD_CAT_ID":"56477","SEMIMAJOR_AXIS":"6737.225","REV_AT_EPOCH":"514","OBJECT_NAME":"STARLINK-5534","RCS_SIZE":"LARGE","LAUNCH_DATE":"2023-05-10","EPHEMERIS_TYPE":"0","BSTAR":"0.00001292900000","ARG_OF_PERICENTER":"264.6618","MEAN_ANOMALY":"95.4215","TLE_LINE2":"2 56477  69.9977 153.6042 0003175 264.6618  95.4215 15.69933234  5149","RA_OF_ASC_NODE":"153.6042","PERIAPSIS":"356.951","CENTER_NAME":"EARTH","MEAN_MOTION_DOT":"0.00001343"},{"TLE_LINE1":"1 56478U 23064AG  23163.40136599  .00002106  00000-0  19279-4 0  9998","PERIOD":"91.724","CLASSIFICATION_TYPE":"U","ECCENTRICITY":"0.00034890","FILE":"3931605","SITE":"AFWTR","MEAN_MOTION":"15.69929946","REF_FRAME":"TEME","TIME_SYSTEM":"UTC","MEAN_MOTION_DDOT":"0.0000000000000","OBJECT_ID":"2023-064AG","INCLINATION":"69.9997","EPOCH":"2023-06-12T09:37:58.021536","MEAN_ELEMENT_THEORY":"SGP4","OBJECT_TYPE":"PAYLOAD","ELEMENT_SET_NO":"999","GP_ID":"233804942","REV_AT_EPOCH":"515","OBJECT_NAME":"STARLINK-6041","SEMIMAJOR_AXIS":"6737.234","BSTAR":"0.00001927900000","RCS_SIZE":"LARGE","EPHEMERIS_TYPE":"0","LAUNCH_DATE":"2023-05-10","NORAD_CAT_ID":"56478","COUNTRY_CODE":"US","DECAY_DATE":null,"APOAPSIS":"361.450","CENTER_NAME":"EARTH","PERIAPSIS":"356.749","MEAN_MOTION_DOT":"0.00002106","ARG_OF_PERICENTER":"271.3015","TLE_LINE2":"2 56478  69.9997 153.4272 0003489 271.3015  88.7781 15.69929946  5158","RA_OF_ASC_NODE":"153.4272","MEAN_ANOMALY":"88.7781"},{"OBJECT_TYPE":"PAYLOAD","OBJECT_ID":"2023-064AH","MEAN_MOTION_DDOT":"0.0000000000000","INCLINATION":"69.9964","EPOCH":"2023-06-12T09:36:54.569376","MEAN_ELEMENT_THEORY":"SGP4","GP_ID":"233805064","ELEMENT_SET_NO":"999","CLASSIFICATION_TYPE":"U","FILE":"3931605","ECCENTRICITY":"0.00032530","SITE":"AFWTR","TLE_LINE1":"1 56479U 23064AH  23163.40063159 -.00000256  00000-0 -35832-6 0  9991","PERIOD":"91.724","REF_FRAME":"TEME","TIME_SYSTEM":"UTC","MEAN_MOTION":"15.69926565","MEAN_MOTION_DOT":"-0.00000256","CENTER_NAME":"EARTH","PERIAPSIS":"356.917","TLE_LINE2":"2 56479  69.9964 153.4230 0003253 264.5260  95.5565 15.69926565  5152","RA_OF_ASC_NODE":"153.4230","MEAN_ANOMALY":"95.5565","ARG_OF_PERICENTER":"264.5260","BSTAR":"-0.00000035832000","RCS_SIZE":"LARGE","EPHEMERIS_TYPE":"0","LAUNCH_DATE":"2023-05-10","OBJECT_NAME":"STARLINK-6044","REV_AT_EPOCH":"515","SEMIMAJOR_AXIS":"6737.244","NORAD_CAT_ID":"56479","COUNTRY_CODE":"US","DECAY_DATE":null,"APOAPSIS":"361.301"},{"TLE_LINE2":"2 56480  69.9964 153.4255 0002894 265.7429  94.3436 15.69923483  5151","RA_OF_ASC_NODE":"153.4255","MEAN_ANOMALY":"94.3436","ARG_OF_PERICENTER":"265.7429","MEAN_MOTION_DOT":"-0.00000015","CENTER_NAME":"EARTH","PERIAPSIS":"357.168","NORAD_CAT_ID":"56480","COUNTRY_CODE":"US","DECAY_DATE":null,"APOAPSIS":"361.068","BSTAR":"0.00000164240000","RCS_SIZE":"LARGE","EPHEMERIS_TYPE":"0","LAUNCH_DATE":"2023-05-10","OBJECT_NAME":"STARLINK-6214","REV_AT_EPOCH":"515","SEMIMAJOR_AXIS":"6737.253","GP_ID":"233805133","ELEMENT_SET_NO":"999","OBJECT_TYPE":"PAYLOAD","MEAN_MOTION_DDOT":"0.0000000000000","OBJECT_ID":"2023-064AJ","INCLINATION":"69.9964","EPOCH":"2023-06-12T09:38:16.645056","MEAN_ELEMENT_THEORY":"SGP4","REF_FRAME":"TEME","TIME_SYSTEM":"UTC","MEAN_MOTION":"15.69923483","CLASSIFICATION_TYPE":"U","FILE":"3931605","ECCENTRICITY":"0.00028940","SITE":"AFWTR","TLE_LINE1":"1 56480U 23064AJ  23163.40158154 -.00000015  00000-0  16424-5 0  9990","PERIOD":"91.724"},{"MEAN_MOTION":"15.69928422","TIME_SYSTEM":"UTC","REF_FRAME":"TEME","PERIOD":"91.724","TLE_LINE1":"1 56481U 23064AK  23163.40083975  .00000645  00000-0  71287-5 0  9995","SITE":"AFWTR","ECCENTRICITY":"0.00034290","FILE":"3931605","CLASSIFICATION_TYPE":"U","ELEMENT_SET_NO":"999","GP_ID":"233805006","MEAN_ELEMENT_THEORY":"SGP4","EPOCH":"2023-06-12T09:37:12.554400","INCLINATION":"69.9980","OBJECT_ID":"2023-064AK","MEAN_MOTION_DDOT":"0.0000000000000","OBJECT_TYPE":"PAYLOAD","APOAPSIS":"361.414","DECAY_DATE":null,"COUNTRY_CODE":"US","NORAD_CAT_ID":"56481","SEMIMAJOR_AXIS":"6737.239","REV_AT_EPOCH":"515","OBJECT_NAME":"STARLINK-6222","EPHEMERIS_TYPE":"0","LAUNCH_DATE":"2023-05-10","RCS_SIZE":"LARGE","BSTAR":"0.00000712870000","ARG_OF_PERICENTER":"265.2233","MEAN_ANOMALY":"94.8571","RA_OF_ASC_NODE":"153.4242","TLE_LINE2":"2 56481  69.9980 153.4242 0003429 265.2233  94.8571 15.69928422  5152","PERIAPSIS":"356.794","CENTER_NAME":"EARTH","MEAN_MOTION_DOT":"0.00000645"},{"GP_ID":"233805197","ELEMENT_SET_NO":"999","OBJECT_TYPE":"PAYLOAD","OBJECT_ID":"2023-064AL","MEAN_MOTION_DDOT":"0.0000000000000","INCLINATION":"69.9982","EPOCH":"2023-06-12T09:37:48.787968","MEAN_ELEMENT_THEORY":"SGP4","REF_FRAME":"TEME","TIME_SYSTEM":"UTC","MEAN_MOTION":"15.69932528","CLASSIFICATION_TYPE":"U","FILE":"3931605","ECCENTRICITY":"0.00033160","SITE":"AFWTR","TLE_LINE1":"1 56482U 23064AL  23163.40125912  .00000850  00000-0  88367-5 0  9999","PERIOD":"91.724","TLE_LINE2":"2 56482  69.9982 153.4268 0003316 266.0331  94.0486 15.69932528  5155","RA_OF_ASC_NODE":"153.4268","MEAN_ANOMALY":"94.0486","ARG_OF_PERICENTER":"266.0331","MEAN_MOTION_DOT":"0.00000850","CENTER_NAME":"EARTH","PERIAPSIS":"356.858","NORAD_CAT_ID":"56482","COUNTRY_CODE":"US","APOAPSIS":"361.326","DECAY_DATE":null,"BSTAR":"0.00000883670000","RCS_SIZE":"LARGE","LAUNCH_DATE":"2023-05-10","EPHEMERIS_TYPE":"0","REV_AT_EPOCH":"515","OBJECT_NAME":"STARLINK-6220","SEMIMAJOR_AXIS":"6737.227"},{"REV_AT_EPOCH":"515","OBJECT_NAME":"STARLINK-5868","SEMIMAJOR_AXIS":"6737.233","BSTAR":"0.00000330270000","RCS_SIZE":"LARGE","EPHEMERIS_TYPE":"0","LAUNCH_DATE":"2023-05-10","NORAD_CAT_ID":"56483","COUNTRY_CODE":"US","DECAY_DATE":null,"APOAPSIS":"361.165","CENTER_NAME":"EARTH","PERIAPSIS":"357.031","MEAN_MOTION_DOT":"0.00000185","ARG_OF_PERICENTER":"261.6026","TLE_LINE2":"2 56483  69.9986 153.4237 0003068 261.6026  98.4822 15.69930515  5158","RA_OF_ASC_NODE":"153.4237","MEAN_ANOMALY":"98.4822","TLE_LINE1":"1 56483U 23064AM  23163.40052268  .00000185  00000-0  33027-5 0  9997","PERIOD":"91.724","CLASSIFICATION_TYPE":"U","ECCENTRICITY":"0.00030680","FILE":"3931605","SITE":"AFWTR","MEAN_MOTION":"15.69930515","REF_FRAME":"TEME","TIME_SYSTEM":"UTC","OBJECT_ID":"2023-064AM","MEAN_MOTION_DDOT":"0.0000000000000","INCLINATION":"69.9986","EPOCH":"2023-06-12T09:36:45.159552","MEAN_ELEMENT_THEORY":"SGP4","OBJECT_TYPE":"PAYLOAD","ELEMENT_SET_NO":"999","GP_ID":"233805319"},{"GP_ID":"233804879","ELEMENT_SET_NO":"999","OBJECT_TYPE":"PAYLOAD","MEAN_MOTION_DDOT":"0.0000000000000","OBJECT_ID":"2023-064AN","INCLINATION":"69.9957","EPOCH":"2023-06-12T09:37:21.737856","MEAN_ELEMENT_THEORY":"SGP4","REF_FRAME":"TEME","TIME_SYSTEM":"UTC","MEAN_MOTION":"15.69927738","CLASSIFICATION_TYPE":"U","FILE":"3931605","ECCENTRICITY":"0.00031700","SITE":"AFWTR","TLE_LINE1":"1 56484U 23064AN  23163.40094604  .00000048  00000-0  21678-5 0  9995","PERIOD":"91.724","TLE_LINE2":"2 56484  69.9957 153.4228 0003170 272.3399  87.7434 15.69927738  5156","RA_OF_ASC_NODE":"153.4228","MEAN_ANOMALY":"87.7434","ARG_OF_PERICENTER":"272.3399","MEAN_MOTION_DOT":"0.00000048","CENTER_NAME":"EARTH","PERIAPSIS":"356.970","NORAD_CAT_ID":"56484","COUNTRY_CODE":"US","DECAY_DATE":null,"APOAPSIS":"361.241","BSTAR":"0.00000216780000","RCS_SIZE":"LARGE","LAUNCH_DATE":"2023-05-10","EPHEMERIS_TYPE":"0","OBJECT_NAME":"STARLINK-6221","REV_AT_EPOCH":"515","SEMIMAJOR_AXIS":"6737.241"}];
